[{"OBJECT_NAME":"COSMOS 2587 (RODNIK-S 21)","OBJECT_ID":"2025-054C","EPOCH":"2026-03-09T20:00:33.370848","MEAN_MOTION":12.42887882,"ECCENTRICITY":0.0014249,"INCLINATION":82.4993,"RA_OF_ASC_NODE":140.5257,"ARG_OF_PERICENTER":223.7134,"MEAN_ANOMALY":136.2818,"EPHEMERIS_TYPE":0,"CLASSIFICATION_TYPE":"U","NORAD_CAT_ID":63290,"ELEMENT_SET_NO":999,"REV_AT_EPOCH":4451,"BSTAR":0.00013922,"MEAN_MOTION_DOT":2.9e-7,"MEAN_MOTION_DDOT":0},{"OBJECT_NAME":"THORAD DELTA 1 DEB","OBJECT_ID":"1974-089BB","EPOCH":"2026-03-09T14:51:33.156000","MEAN_MOTION":12.40507634,"ECCENTRICITY":0.006969,"INCLINATION":101.5374,"RA_OF_ASC_NODE":353.3972,"ARG_OF_PERICENTER":344.3511,"MEAN_ANOMALY":136.2165,"EPHEMERIS_TYPE":0,"CLASSIFICATION_TYPE":"U","NORAD_CAT_ID":8185,"ELEMENT_SET_NO":999,"REV_AT_EPOCH":32241,"BSTAR":0.00036959,"MEAN_MOTION_DOT":8.0e-8,"MEAN_MOTION_DDOT":0}]
